OBJECT_NAME,OBJECT_ID,EPOCH,MEAN_MOTION,ECCENTRICITY,INCLINATION,RA_OF_ASC_NODE,ARG_OF_PERICENTER,MEAN_ANOMALY,EPHEMERIS_TYPE,CLASSIFICATION_TYPE,NORAD_CAT_ID,ELEMENT_SET_NO,REV_AT_EPOCH,BSTAR,MEAN_MOTION_DOT,MEAN_MOTION_DDOT
DMSP 5D-3 F16 (USA 172),2003-048A,2026-07-12T08:18:09.172800,14.14484842,.00081778,98.9887,217.3399,78.2436,338.5563,0,U,28054,999,17304,.4814944E-5,-.36E-6,0
METEOSAT-9 (MSG-2),2005-049B,2026-07-12T05:10:24.568896,1.00270590,.0002045,9.4157,53.9162,356.7107,2.7516,0,U,28912,999,724,0,.118E-5,0
DMSP 5D-3 F17 (USA 191),2006-050A,2026-07-12T06:31:55.742880,14.14996071,.00098932,98.7386,199.3295,351.4452,8.6551,0,U,29522,999,1597,.19634836E-4,-.5E-7,0
FENGYUN 3A,2008-026A,2026-07-11T20:34:47.275104,14.19576043,.00097491,98.6887,133.2298,60.4614,299.7533,0,U,32958,999,93890,.28345038E-4,.16E-6,0
GOES 14,2009-033A,2026-07-12T07:16:14.505024,1.00099521,.00018702,1.7518,82.7295,40.4853,42.9126,0,U,35491,999,684,0,-.355E-5,0
DMSP 5D-3 F18 (USA 210),2009-057A,2026-07-12T05:53:00.196224,14.14910401,.00110503,98.9054,173.9617,173.7481,186.3832,0,U,35951,999,86313,.10894601E-3,.166E-5,0
EWS-G2 (GOES 15),2010-008A,2026-07-12T04:22:21.654048,1.00268209,.00052041,1.3436,82.5028,53.7849,282.7295,0,U,36411,999,5988,0,.23E-6,0
COMS 1,2010-032A,2026-07-12T01:24:49.084416,0.99168704,.00112549,4.8663,75.0558,14.7288,195.8952,0,U,36744,999,5133,0,-.246E-5,0
FENGYUN 3B,2010-059A,2026-07-12T06:32:42.906912,14.14847563,.00230875,98.9615,239.3919,114.5449,333.5887,0,U,37214,999,81097,.18767835E-3,.318E-5,0
SUOMI NPP,2011-061A,2026-07-12T07:01:17.889888,14.19522282,.00006262,98.7956,133.9978,232.3226,127.7893,0,U,37849,999,76200,.3026639E-4,.19E-6,0
METEOSAT-10 (MSG-3),2012-035B,2026-07-12T07:40:38.521920,1.00270214,.00010715,4.7287,60.8932,17.8496,326.6883,0,U,38552,999,5110,0,-.1E-6,0
METOP-B,2012-049A,2026-07-12T07:39:35.761824,14.21445854,.00010552,98.6491,244.3153,273.3740,86.7317,0,U,38771,999,71683,.40426068E-4,.45E-6,0
INSAT-3D,2013-038B,2026-07-12T07:16:59.433024,1.00269791,.00005058,1.9882,82.2230,85.6649,1.0771,0,U,39216,999,4733,0,-.339E-5,0
FENGYUN 3C,2013-052A,2026-07-12T06:34:50.963808,14.15760370,.00137962,98.4996,165.9992,314.9289,45.0765,0,U,39260,999,66211,.32869283E-4,.23E-6,0
METEOR-M 2,2014-037A,2026-07-12T06:35:40.792416,14.21469838,.00053357,98.5123,168.1263,336.5614,23.5320,0,U,40069,999,62288,.21060746E-3,.418E-5,0
HIMAWARI-8,2014-060A,2026-07-12T07:20:06.634176,1.00272419,.00010454,0.0204,311.4735,217.7478,11.6698,0,U,40267,999,4301,0,-.273E-5,0
FENGYUN 2G,2014-090A,2026-07-11T22:47:21.537312,1.00261523,.00043152,5.6976,72.5145,151.9124,146.5618,0,U,40367,999,4224,0,-.3E-5,0
METEOSAT-11 (MSG-4),2015-034A,2026-07-12T05:00:03.060864,1.00270928,.00022308,3.2620,70.9534,353.1646,310.2476,0,U,40732,999,746,0,.61E-6,0
ELEKTRO-L 2,2015-074A,2026-07-11T10:04:03.448704,1.00272476,.00008885,6.7510,70.2237,218.2194,137.3884,0,U,41105,999,3874,0,-.118E-5,0
SENTINEL-3A,2016-011A,2026-07-12T07:45:12.125664,14.26739260,.00013752,98.6238,260.3443,91.0370,269.0968,0,U,41335,999,54164,.35982391E-4,.43E-6,0
INSAT-3DR,2016-054A,2026-07-12T04:17:21.666336,1.00269102,.00106756,0.0620,88.8483,181.4659,158.1038,0,U,41752,999,3606,0,-.74E-6,0
HIMAWARI-9,2016-064A,2026-07-12T07:20:14.121600,1.00269075,.00024786,0.0301,57.8421,124.9965,358.1825,0,U,41836,999,3546,0,0,0
GOES 16,2016-071A,2026-07-12T04:27:29.526624,1.00270889,.00005201,0.3959,85.5072,97.9956,68.7623,0,U,41866,999,3535,0,-.89E-6,0
FENGYUN 4A,2016-077A,2026-07-12T07:15:22.088736,1.00269727,.00084664,2.3826,80.0025,159.2177,283.5913,0,U,41882,999,3518,0,-.357E-5,0
CYGFM05,2016-078A,2026-07-12T02:49:28.759872,15.57754796,.00065197,34.9566,95.3657,6.4855,353.5953,0,U,41884,999,53264,.22098579E-3,.16961E-3,0
CYGFM04,2016-078B,2026-07-12T00:11:51.666432,15.62937948,.00045927,34.9325,62.4944,48.1886,311.9231,0,U,41885,999,53288,.23212136E-3,.21763E-3,0
CYGFM02,2016-078C,2026-07-11T23:01:39.357984,15.66185448,.00053337,34.9407,56.6012,51.8258,308.2949,0,U,41886,999,53305,.24624823E-3,.26306E-3,0
CYGFM01,2016-078D,2026-07-12T02:17:08.539872,15.58468472,.00066093,34.9395,96.3657,0.1122,359.9603,0,U,41887,999,53259,.21606229E-3,.17038E-3,0
CYGFM08,2016-078E,2026-07-12T01:47:22.651872,15.61329763,.00066918,34.9432,75.4042,35.5507,324.5663,0,U,41888,999,53286,.22706594E-3,.19997E-3,0
CYGFM07,2016-078G,2026-07-12T00:46:13.141056,15.61436171,.00050227,34.9450,64.0074,48.6424,311.4733,0,U,41890,999,53288,.22382114E-3,.19782E-3,0
CYGFM03,2016-078H,2026-07-12T01:36:45.850176,15.61425276,.00050252,34.9404,65.7035,32.8807,327.2230,0,U,41891,999,53286,.22697784E-3,.20054E-3,0
